#aV2021  6  1  0  0  0.00000000     288 DD+AD WGS84 FIT  NGA
## 2160 172800.00000000   300.00000000 59366 0.0000000000000
+   31     1  2  3  4  5  6  7  8  9 10 12 13 14 15 16 17 18
+         19 20 21 22 23 24 25 26 27 28 29 30 31 32  0  0  0
+          0  0  0  0  0  0  0  0  0  0  0  0  0  0  0  0  0
+          0  0  0  0  0  0  0  0  0  0  0  0  0  0  0  0  0
+          0  0  0  0  0  0  0  0  0  0  0  0  0  0  0  0  0
++         2  2  2  2  2  2  2  2  2  2  2  2  2  2  2  2  2
++         2  2  2  2  2  2  2  2  2  2  2  2  2  2  0  0  0
++         0  0  0  0  0  0  0  0  0  0  0  0  0  0  0  0  0
++         0  0  0  0  0  0  0  0  0  0  0  0  0  0  0  0  0
++         0  0  0  0  0  0  0  0  0  0  0  0  0  0  0  0  0
%c cc cc ccc ccc cccc cccc cccc cccc ccccc ccccc ccccc ccccc
%c cc cc ccc ccc cccc cccc cccc cccc ccccc ccccc ccccc ccccc
%f  0.0000000  0.000000000  0.00000000000  0.000000000000000
%f  0.0000000  0.000000000  0.00000000000  0.000000000000000
%i    0    0    0    0      0      0      0      0         0
%i    0    0    0    0      0      0      0      0         0
/*      NGA, ST. LOUIS,MO.                                  
/*   EPHEMERIS COMPUTED FROM 2 DAYS OF DATA                 
/*   EPOCHA v6 SMOOTHER                                     
/*   G2139 IERS2010 SATIGS SATAPC                           
*  2021  6  1  6 10  0.00000000
P  1 -17758.794408  -7025.302314  18345.590181    672.159129                    
V  1 -10494.613319 -21221.605711 -17692.957533     -0.115502                    
P  2  13486.145141  22805.354700   1990.678732   -608.877997                    
V  2  -3261.747445     70.731280  31718.082623     -0.030272                    
P  3 -17674.055038   3823.042223  19327.865135   -179.648570                    
V  3  11519.203372 -21931.323609  14915.641118     -0.104616                    
P  4 -26573.219437  -1007.932260   -254.959012   -198.403697                    
V  4   -209.013022  -2806.229998  31697.582898     -0.013248                    
P  5  11210.505528  11120.119225 -21493.431322    -43.626268                    
V  5 -13367.585049  23422.644895   5363.015053     -0.011237                    
P  6   4503.305537  23555.962087  11408.409426     21.775870                    
V  6  -8606.550288 -11665.631598  27677.750905      0.042466                    
P  7 -12860.074919   8210.132894 -21372.755673    166.540702                    
V  7 -13859.519805 -24370.126008  -1494.075146      0.101826                    
P  8 -24149.289988  -6375.681303  -9480.932637    -23.404883                    
V  8  11905.340277  -2204.935774 -28576.512447     -0.014533                    
P  9 -23115.881435   7715.426968 -10652.723434   -348.779937                    
V  9 -13462.590478  -2556.610213  27487.639864     -0.020860                    
P 10  11076.490879 -23722.614940   3619.203076   -133.433864                    
V 10   4625.886895  -2478.606444 -31679.347035     -0.076266                    
P 12  17171.776288   -975.924600  19946.830808    -48.884702                    
V 12 -13842.132552  21910.708184  12961.679113     -0.051953                    
P 13  17643.621647  13080.361623 -15163.894653    139.205761                    
V 13 -19008.448386   -956.123084 -23009.624004      0.048072                    
P 14 -12389.423579  23238.162186   3313.741036     77.125418                    
V 14  -4763.692207   1934.815267 -31324.510474     -0.063955                    
P 15  24776.613824   4429.070852  -9377.778704   -145.458332                    
V 15 -10964.245853   4264.371301 -27697.570709      0.026229                    
P 16  -6103.949539 -15624.046084 -20723.967670   -334.236523                    
V 16  15924.758343 -20377.772315  11247.515014     -0.059921                    
P 17 -10366.284054  13290.507700  20953.383189    451.476409                    
V 17 -25467.656736  -2487.398795 -11250.325361      0.060193                    
P 18  10327.141138 -11887.160848 -21390.282802    348.614481                    
V 18  13290.380476  23649.105987  -6795.541696     -0.014197                    
P 19   -510.582778  14678.900452  21846.626187      7.538645                    
V 19 -28185.827190  -3246.214845   1384.799518      0.049835                    
P 20  13955.546275   7288.510032 -21396.541111    521.616617                    
V 20 -10374.020006  25186.433969   1523.814988     -0.003821                    
P 21 -19812.863654 -12809.498964  13378.189199    122.065577                    
V 21  -7177.407188 -14038.031862 -24949.416298      0.025611                    
P 22 -14444.007850  -6550.103680  21495.507259   -599.818819                    
V 22  11255.712566 -24487.997187    300.481771      0.097138                    
P 23  16709.307503 -19170.423145  -7592.804069    101.472489                    
V 23  -2433.585161   9661.256870 -29876.232920     -0.037590                    
P 24  19692.607030  10800.810597  14228.621291    109.971500                    
V 24   8032.059362  16744.331728 -23025.700385      0.199283                    
P 25  18467.098313 -13579.381311  12917.028191    147.768333                    
V 25  -6420.452687  15874.444882  25615.148421      0.069713                    
P 26    343.966164 -22414.011040 -14090.771101     92.708169                    
V 26  10871.360021 -14546.571507  23769.961305      0.048832                    
P 27 -15725.601690 -12279.400022 -17891.917497   -139.769923                    
V 27  22196.965735   -884.907742 -18734.112990     -0.063648                    
P 28  -8506.789150  23393.308299  10075.457432    562.012650                    
V 28  -8543.199103   8531.778296 -28410.308782     -0.062846                    
P 29  23906.631907  -5024.908431 -10536.218255   -356.730451                    
V 29  13059.296977   2889.962196  28339.129370     -0.064111                    
P 30  -3515.724786  19980.825992 -16957.550673   -433.416156                    
V 30 -12273.199310 -18188.549332 -19052.404153     -0.048088                    
P 31  -6112.892633 -24168.097799   8381.134493   -120.538552                    
V 31   7865.489275   8166.077250  29446.563748     -0.021650                    
P 32   6986.237682 -14781.918163  21013.858991     19.888524                    
V 32  26466.089153    933.968332  -8354.929280     -0.010685                    
EOF
